TYVAK-0130              
1 48606U 21041BF  26068.48452211  .00008857  00000+0  35198-3 0  9997
2 48606  52.9967 128.6030 0008953 215.1647 144.8760 15.26049141265157
STARLINK-31560          
1 59361U 24060P   26068.57596352 -.00000506  00000+0 -88704-5 0  9994
2 59361  43.0032 260.6500 0001084 262.1715  97.9014 15.27564558110048
